{
  "type": "FeatureCollection",
  "features": [
    {
      "type": "Feature",
      "properties": {
        "norad_id": 41877,
        "name": "RESOURCESAT-2A",
        "group": "resource",
        "lat": -41.92710787585658,
        "lon": 66.05862619341482,
        "alt_km": 826.1913542315033,
        "timestamp": "2025-12-14T05:42:18.115024+00:00",
        "meta_object_name": "RESOURCESAT-2A",
        "meta_object_id": "2016-074A",
        "meta_epoch": "2025-12-13T16:23:28.501728",
        "meta_mean_motion": 14.21601157,
        "meta_eccentricity": 0.00011669,
        "meta_inclination": 98.7753,
        "meta_ra_of_asc_node": 57.5331,
        "meta_arg_of_pericenter": 250.1351,
        "meta_mean_anomaly": 109.9701,
        "meta_ephemeris_type": 0,
        "meta_classification_type": "U",
        "meta_norad_cat_id": 41877,
        "meta_element_set_no": 999,
        "meta_rev_at_epoch": 46794,
        "meta_bstar": 0.00026631553,
        "meta_mean_motion_dot": 5.4e-06,
        "meta_mean_motion_ddot": 0,
        "tle_line1": "1 41877U 16074A   25347.68296877  .00000540  00000+0  26632-3 0  9999",
        "tle_line2": "2 41877  98.7753  57.5331 0001166 250.1351 109.9701 14.21601157467948"
      },
      "geometry": {
        "type": "Point",
        "coordinates": [
          66.05862619341482,
          -41.92710787585658
        ]
      }
    },
    {
      "type": "Feature",
      "properties": {
        "norad_id": 41948,
        "name": "CARTOSAT-2D",
        "group": "resource",
        "lat": 49.6815513948882,
        "lon": -125.4310102393923,
        "alt_km": 500.6340737610399,
        "timestamp": "2025-12-14T05:42:18.115034+00:00",
        "meta_object_name": "CARTOSAT-2D",
        "meta_object_id": "2017-008A",
        "meta_epoch": "2025-12-13T16:29:26.221056",
        "meta_mean_motion": 15.19280186,
        "meta_eccentricity": 0.00046868,
        "meta_inclination": 97.439,
        "meta_ra_of_asc_node": 45.1697,
        "meta_arg_of_pericenter": 158.6694,
        "meta_mean_anomaly": 201.4737,
        "meta_ephemeris_type": 0,
        "meta_classification_type": "U",
        "meta_norad_cat_id": 41948,
        "meta_element_set_no": 999,
        "meta_rev_at_epoch": 48941,
        "meta_bstar": 0.00049899004,
        "meta_mean_motion_dot": 0.00010468,
        "meta_mean_motion_ddot": 0,
        "tle_line1": "1 41948U 17008A   25347.68710904  .00010468  00000+0  49899-3 0  9998",
        "tle_line2": "2 41948  97.4390  45.1697 0004686 158.6694 201.4737 15.19280186489416"
      },
      "geometry": {
        "type": "Point",
        "coordinates": [
          -125.4310102393923,
          49.6815513948882
        ]
      }
    },
    {
      "type": "Feature",
      "properties": {
        "norad_id": 42063,
        "name": "SENTINEL-2B",
        "group": "resource",
        "lat": -24.110540406952577,
        "lon": 64.53234109362222,
        "alt_km": 794.8342152076157,
        "timestamp": "2025-12-14T05:42:18.115044+00:00",
        "meta_object_name": "SENTINEL-2B",
        "meta_object_id": "2017-013A",
        "meta_epoch": "2025-12-13T16:23:32.088192",
        "meta_mean_motion": 14.30817185,
        "meta_eccentricity": 0.00011513,
        "meta_inclination": 98.5711,
        "meta_ra_of_asc_node": 60.1153,
        "meta_arg_of_pericenter": 92.9463,
        "meta_mean_anomaly": 267.1852,
        "meta_ephemeris_type": 0,
        "meta_classification_type": "U",
        "meta_norad_cat_id": 42063,
        "meta_element_set_no": 999,
        "meta_rev_at_epoch": 45811,
        "meta_bstar": 0.0001478502,
        "meta_mean_motion_dot": 3.44e-06,
        "meta_mean_motion_ddot": 0,
        "tle_line1": "1 42063U 17013A   25347.68301028  .00000344  00000+0  14785-3 0  9994",
        "tle_line2": "2 42063  98.5711  60.1153 0001151  92.9463 267.1852 14.30817185458113"
      },
      "geometry": {
        "type": "Point",
        "coordinates": [
          64.53234109362222,
          -24.110540406952577
        ]
      }
    },
    {
      "type": "Feature",
      "properties": {
        "norad_id": 42767,
        "name": "CARTOSAT-2E",
        "group": "resource",
        "lat": 39.70845690040438,
        "lon": 39.56134010458746,
        "alt_km": 506.58155018351044,
        "timestamp": "2025-12-14T05:42:18.115054+00:00",
        "meta_object_name": "CARTOSAT-2E",
        "meta_object_id": "2017-036C",
        "meta_epoch": "2025-12-13T08:58:44.605632",
        "meta_mean_motion": 15.19213643,
        "meta_eccentricity": 0.00020915,
        "meta_inclination": 97.4556,
        "meta_ra_of_asc_node": 44.9525,
        "meta_arg_of_pericenter": 233.8764,
        "meta_mean_anomaly": 126.2278,
        "meta_ephemeris_type": 0,
        "meta_classification_type": "U",
        "meta_norad_cat_id": 42767,
        "meta_element_set_no": 999,
        "meta_rev_at_epoch": 46993,
        "meta_bstar": 0.00052240021,
        "meta_mean_motion_dot": 0.00010939,
        "meta_mean_motion_ddot": 0,
        "tle_line1": "1 42767U 17036C   25347.37412738  .00010939  00000+0  52240-3 0  9996",
        "tle_line2": "2 42767  97.4556  44.9525 0002091 233.8764 126.2278 15.19213643469932"
      },
      "geometry": {
        "type": "Point",
        "coordinates": [
          39.56134010458746,
          39.70845690040438
        ]
      }
    },
    {
      "type": "Feature",
      "properties": {
        "norad_id": 42920,
        "name": "FORMOSAT-5",
        "group": "resource",
        "lat": 81.05579271977592,
        "lon": -4.593879741988985,
        "alt_km": 721.3162959178071,
        "timestamp": "2025-12-14T05:42:18.115065+00:00",
        "meta_object_name": "FORMOSAT-5",
        "meta_object_id": "2017-049A",
        "meta_epoch": "2025-12-13T16:04:02.964000",
        "meta_mean_motion": 14.51006251,
        "meta_eccentricity": 0.00098614,
        "meta_inclination": 98.2453,
        "meta_ra_of_asc_node": 61.9701,
        "meta_arg_of_pericenter": 292.3229,
        "meta_mean_anomaly": 67.6921,
        "meta_ephemeris_type": 0,
        "meta_classification_type": "U",
        "meta_norad_cat_id": 42920,
        "meta_element_set_no": 999,
        "meta_rev_at_epoch": 43977,
        "meta_bstar": 0.0001040867,
        "meta_mean_motion_dot": 3.68e-06,
        "meta_mean_motion_ddot": 0,
        "tle_line1": "1 42920U 17049A   25347.66947875  .00000368  00000+0  10409-3 0  9994",
        "tle_line2": "2 42920  98.2453  61.9701 0009861 292.3229  67.6921 14.51006251439773"
      },
      "geometry": {
        "type": "Point",
        "coordinates": [
          -4.593879741988985,
          81.05579271977592
        ]
      }
    },
    {
      "type": "Feature",
      "properties": {
        "norad_id": 42969,
        "name": "SENTINEL-5P",
        "group": "resource",
        "lat": -46.86932302901364,
        "lon": -63.69739559110171,
        "alt_km": 834.2201452341706,
        "timestamp": "2025-12-14T05:42:18.115076+00:00",
        "meta_object_name": "SENTINEL-5P",
        "meta_object_id": "2017-064A",
        "meta_epoch": "2025-12-13T16:23:43.981152",
        "meta_mean_motion": 14.19517874,
        "meta_eccentricity": 9.679e-05,
        "meta_inclination": 98.7784,
        "meta_ra_of_asc_node": 286.2589,
        "meta_arg_of_pericenter": 88.6252,
        "meta_mean_anomaly": 271.5034,
        "meta_ephemeris_type": 0,
        "meta_classification_type": "U",
        "meta_norad_cat_id": 42969,
        "meta_element_set_no": 999,
        "meta_rev_at_epoch": 42324,
        "meta_bstar": 8.3605714e-05,
        "meta_mean_motion_dot": 1.32e-06,
        "meta_mean_motion_ddot": 0,
        "tle_line1": "1 42969U 17064A   25347.68314793  .00000132  00000+0  83606-4 0  9992",
        "tle_line2": "2 42969  98.7784 286.2589 0000967  88.6252 271.5034 14.19517874423242"
      },
      "geometry": {
        "type": "Point",
        "coordinates": [
          -63.69739559110171,
          -46.86932302901364
        ]
      }
    },
    {
      "type": "Feature",
      "properties": {
        "norad_id": 42987,
        "name": "SKYSAT-C11",
        "group": "resource",
        "lat": 34.60957046463477,
        "lon": 120.61031946538878,
        "alt_km": 421.52263246437724,
        "timestamp": "2025-12-14T05:42:18.115085+00:00",
        "meta_object_name": "SKYSAT-C11",
        "meta_object_id": "2017-068A",
        "meta_epoch": "2025-12-13T15:35:14.942400",
        "meta_mean_motion": 15.47496834,
        "meta_eccentricity": 0.00010217,
        "meta_inclination": 97.4137,
        "meta_ra_of_asc_node": 125.1632,
        "meta_arg_of_pericenter": 103.1406,
        "meta_mean_anomaly": 256.9958,
        "meta_ephemeris_type": 0,
        "meta_classification_type": "U",
        "meta_norad_cat_id": 42987,
        "meta_element_set_no": 999,
        "meta_rev_at_epoch": 45445,
        "meta_bstar": 0.00045956447,
        "meta_mean_motion_dot": 0.00023547,
        "meta_mean_motion_ddot": 0,
        "tle_line1": "1 42987U 17068A   25347.64947850  .00023547  00000+0  45956-3 0  9998",
        "tle_line2": "2 42987  97.4137 125.1632 0001021 103.1406 256.9958 15.47496834454459"
      },
      "geometry": {
        "type": "Point",
        "coordinates": [
          120.61031946538878,
          34.60957046463477
        ]
      }
    }
  ]
}